ORBCOMM FM01 [-]        
1 23545U 95017A   17346.29003410  .00000358  00000-0  70237-4 0  9990
2 23545  69.9703 269.5225 0003086  31.7937 328.3393 14.70930530208365
